{
  "type": "FeatureCollection",
  "features": [
    {
      "type": "Feature",
      "properties": {
        "norad_id": 34010,
        "name": "COSMOS 2251 DEB",
        "group": "cosmos-2251-debris",
        "lat": -21.086392265040377,
        "lon": -104.54960436997888,
        "alt_km": 509.1754450059161,
        "timestamp": "2025-12-22T23:36:21.109956+00:00",
        "meta_object_name": "COSMOS 2251 DEB",
        "meta_object_id": "1993-036GV",
        "meta_epoch": "2025-12-22T11:04:03.553536",
        "meta_mean_motion": 15.20239732,
        "meta_eccentricity": 0.00044981,
        "meta_inclination": 73.9984,
        "meta_ra_of_asc_node": 262.9011,
        "meta_arg_of_pericenter": 57.977,
        "meta_mean_anomaly": 302.1864,
        "meta_ephemeris_type": 0,
        "meta_classification_type": "U",
        "meta_norad_cat_id": 34010,
        "meta_element_set_no": 999,
        "meta_rev_at_epoch": 89433,
        "meta_bstar": 0.0045006568,
        "meta_mean_motion_dot": 0.00098985,
        "meta_mean_motion_ddot": 0,
        "tle_line1": "1 34010U 93036GV  25356.46115224  .00098985  00000+0  45007-2 0  9991",
        "tle_line2": "2 34010  73.9984 262.9011 0004498  57.9770 302.1864 15.20239732894336"
      },
      "geometry": {
        "type": "Point",
        "coordinates": [
          -104.54960436997888,
          -21.086392265040377
        ]
      }
    },
    {
      "type": "Feature",
      "properties": {
        "norad_id": 34011,
        "name": "COSMOS 2251 DEB",
        "group": "cosmos-2251-debris",
        "lat": 49.49627334015688,
        "lon": 111.5325574887602,
        "alt_km": 750.1680413627746,
        "timestamp": "2025-12-22T23:36:21.109966+00:00",
        "meta_object_name": "COSMOS 2251 DEB",
        "meta_object_id": "1993-036GW",
        "meta_epoch": "2025-12-20T21:03:41.222016",
        "meta_mean_motion": 14.41804306,
        "meta_eccentricity": 0.0036046,
        "meta_inclination": 74.0145,
        "meta_ra_of_asc_node": 315.0473,
        "meta_arg_of_pericenter": 36.2778,
        "meta_mean_anomaly": 324.0811,
        "meta_ephemeris_type": 0,
        "meta_classification_type": "U",
        "meta_norad_cat_id": 34011,
        "meta_element_set_no": 999,
        "meta_rev_at_epoch": 88033,
        "meta_bstar": 0.00051243,
        "meta_mean_motion_dot": 1.661e-05,
        "meta_mean_motion_ddot": 0,
        "tle_line1": "1 34011U 93036GW  25354.87756044  .00001661  00000+0  51243-3 0  9991",
        "tle_line2": "2 34011  74.0145 315.0473 0036046  36.2778 324.0811 14.41804306880339"
      },
      "geometry": {
        "type": "Point",
        "coordinates": [
          111.5325574887602,
          49.49627334015688
        ]
      }
    },
    {
      "type": "Feature",
      "properties": {
        "norad_id": 34014,
        "name": "COSMOS 2251 DEB",
        "group": "cosmos-2251-debris",
        "lat": 36.326884868607515,
        "lon": 68.5746736506778,
        "alt_km": 654.2505231070763,
        "timestamp": "2025-12-22T23:36:21.109976+00:00",
        "meta_object_name": "COSMOS 2251 DEB",
        "meta_object_id": "1993-036GZ",
        "meta_epoch": "2025-12-22T03:43:38.357184",
        "meta_mean_motion": 14.73241983,
        "meta_eccentricity": 0.00374339,
        "meta_inclination": 74.0173,
        "meta_ra_of_asc_node": 262.3559,
        "meta_arg_of_pericenter": 39.3733,
        "meta_mean_anomaly": 31.0077,
        "meta_ephemeris_type": 0,
        "meta_classification_type": "U",
        "meta_norad_cat_id": 34014,
        "meta_element_set_no": 999,
        "meta_rev_at_epoch": 89442,
        "meta_bstar": 0.0008905225,
        "meta_mean_motion_dot": 5.788e-05,
        "meta_mean_motion_ddot": 0,
        "tle_line1": "1 34014U 93036GZ  25356.15530506  .00005788  00000+0  89052-3 0  9993",
        "tle_line2": "2 34014  74.0173 262.3559 0037433  39.3733  31.0077 14.73241983894423"
      },
      "geometry": {
        "type": "Point",
        "coordinates": [
          68.5746736506778,
          36.326884868607515
        ]
      }
    },
    {
      "type": "Feature",
      "properties": {
        "norad_id": 34015,
        "name": "COSMOS 2251 DEB",
        "group": "cosmos-2251-debris",
        "lat": 35.41087492429237,
        "lon": -51.89754838046087,
        "alt_km": 690.1444078684563,
        "timestamp": "2025-12-22T23:36:21.109986+00:00",
        "meta_object_name": "COSMOS 2251 DEB",
        "meta_object_id": "1993-036HA",
        "meta_epoch": "2025-12-22T11:44:52.534752",
        "meta_mean_motion": 14.60366714,
        "meta_eccentricity": 0.00209713,
        "meta_inclination": 74.0243,
        "meta_ra_of_asc_node": 140.7977,
        "meta_arg_of_pericenter": 237.5603,
        "meta_mean_anomaly": 189.0468,
        "meta_ephemeris_type": 0,
        "meta_classification_type": "U",
        "meta_norad_cat_id": 34015,
        "meta_element_set_no": 999,
        "meta_rev_at_epoch": 88673,
        "meta_bstar": 0.001302991,
        "meta_mean_motion_dot": 6.298e-05,
        "meta_mean_motion_ddot": 0,
        "tle_line1": "1 34015U 93036HA  25356.48949693  .00006298  00000+0  13030-2 0  9990",
        "tle_line2": "2 34015  74.0243 140.7977 0020971 237.5603 189.0468 14.60366714886731"
      },
      "geometry": {
        "type": "Point",
        "coordinates": [
          -51.89754838046087,
          35.41087492429237
        ]
      }
    },
    {
      "type": "Feature",
      "properties": {
        "norad_id": 34018,
        "name": "COSMOS 2251 DEB",
        "group": "cosmos-2251-debris",
        "lat": -63.09092286287458,
        "lon": -70.52121125683556,
        "alt_km": 1111.5004980163658,
        "timestamp": "2025-12-22T23:36:21.109997+00:00",
        "meta_object_name": "COSMOS 2251 DEB",
        "meta_object_id": "1993-036HD",
        "meta_epoch": "2025-12-22T07:03:26.360640",
        "meta_mean_motion": 13.81082359,
        "meta_eccentricity": 0.02632375,
        "meta_inclination": 73.878,
        "meta_ra_of_asc_node": 75.9052,
        "meta_arg_of_pericenter": 109.9598,
        "meta_mean_anomaly": 309.2317,
        "meta_ephemeris_type": 0,
        "meta_classification_type": "U",
        "meta_norad_cat_id": 34018,
        "meta_element_set_no": 999,
        "meta_rev_at_epoch": 84789,
        "meta_bstar": 0.00034125501,
        "meta_mean_motion_dot": 4.48e-06,
        "meta_mean_motion_ddot": 0,
        "tle_line1": "1 34018U 93036HD  25356.29405510  .00000448  00000+0  34126-3 0  9998",
        "tle_line2": "2 34018  73.8780  75.9052 0263237 109.9598 309.2317 13.81082359847894"
      },
      "geometry": {
        "type": "Point",
        "coordinates": [
          -70.52121125683556,
          -63.09092286287458
        ]
      }
    },
    {
      "type": "Feature",
      "properties": {
        "norad_id": 34019,
        "name": "COSMOS 2251 DEB",
        "group": "cosmos-2251-debris",
        "lat": 20.015493971557998,
        "lon": -154.1172312817802,
        "alt_km": 750.7897111197253,
        "timestamp": "2025-12-22T23:36:21.110007+00:00",
        "meta_object_name": "COSMOS 2251 DEB",
        "meta_object_id": "1993-036HE",
        "meta_epoch": "2025-12-22T04:45:46.297728",
        "meta_mean_motion": 14.33977679,
        "meta_eccentricity": 0.00623441,
        "meta_inclination": 73.9533,
        "meta_ra_of_asc_node": 33.3443,
        "meta_arg_of_pericenter": 213.1296,
        "meta_mean_anomaly": 215.0123,
        "meta_ephemeris_type": 0,
        "meta_classification_type": "U",
        "meta_norad_cat_id": 34019,
        "meta_element_set_no": 999,
        "meta_rev_at_epoch": 87656,
        "meta_bstar": 0.00066975857,
        "meta_mean_motion_dot": 1.884e-05,
        "meta_mean_motion_ddot": 0,
        "tle_line1": "1 34019U 93036HE  25356.19845252  .00001884  00000+0  66976-3 0  9992",
        "tle_line2": "2 34019  73.9533  33.3443 0062344 213.1296 215.0123 14.33977679876564"
      },
      "geometry": {
        "type": "Point",
        "coordinates": [
          -154.1172312817802,
          20.015493971557998
        ]
      }
    },
    {
      "type": "Feature",
      "properties": {
        "norad_id": 34021,
        "name": "COSMOS 2251 DEB",
        "group": "cosmos-2251-debris",
        "lat": 49.0792534662335,
        "lon": -88.68650617356163,
        "alt_km": 729.5216658919917,
        "timestamp": "2025-12-22T23:36:21.110030+00:00",
        "meta_object_name": "COSMOS 2251 DEB",
        "meta_object_id": "1993-036HG",
        "meta_epoch": "2025-12-21T09:11:27.909888",
        "meta_mean_motion": 14.4997632,
        "meta_eccentricity": 0.00209884,
        "meta_inclination": 74.036,
        "meta_ra_of_asc_node": 113.5998,
        "meta_arg_of_pericenter": 256.8538,
        "meta_mean_anomaly": 159.7796,
        "meta_ephemeris_type": 0,
        "meta_classification_type": "U",
        "meta_norad_cat_id": 34021,
        "meta_element_set_no": 999,
        "meta_rev_at_epoch": 88755,
        "meta_bstar": 0.00036322987,
        "meta_mean_motion_dot": 1.382e-05,
        "meta_mean_motion_ddot": 0,
        "tle_line1": "1 34021U 93036HG  25355.38296192  .00001382  00000+0  36323-3 0  9994",
        "tle_line2": "2 34021  74.0360 113.5998 0020988 256.8538 159.7796 14.49976320887554"
      },
      "geometry": {
        "type": "Point",
        "coordinates": [
          -88.68650617356163,
          49.0792534662335
        ]
      }
    }
  ]
}